GLOBALSTAR M024         
1 25883U 99043A   25138.83822146 -.00000021  00000+0  15607-2 0  9998
2 25883  52.0012  86.8405 0001784  43.4872 356.9471 11.10167370111631
GLOBALSTAR M027         
1 25884U 99043B   25138.44585953 -.00000088  00000+0 -93024-3 0  9992
2 25884  52.0169 164.8696 0021518 302.7587  57.1132 11.04372381137955
GLOBALSTAR M054         
1 25885U 99043C   25138.45815278  .00000081  00000+0  38806-2 0  9997
2 25885  52.0151 297.1322 0006634 121.4890 251.9787 11.39215441115663
GLOBALSTAR M053         
1 25886U 99043D   25138.54300080 -.00000047  00000+0  64085-3 0  9990
2 25886  51.9980 242.3770 0002908  40.6412 331.9229 11.27665272116101
GLOBALSTAR M058         
1 25907U 99049A   25138.57042842 -.00000024  00000+0  81506-3 0  9994
2 25907  51.9914 188.2606 0002171 205.7032 154.3695 11.93199682538003
GLOBALSTAR M050         
1 25908U 99049B   25138.59993310 -.00000053  00000+0  39369-3 0  9994
2 25908  51.9972 198.0681 0008805 331.6787 181.0672 12.07454739144611
GLOBALSTAR M033         
1 25909U 99049C   25138.53503045  .00000013  00000+0  10018-2 0  9995
2 25909  51.9915  72.1217 0013162 200.7273 159.3042 12.20292256532129
GLOBALSTAR M055         
1 25910U 99049D   25138.58222442 -.00000067  00000+0  23258-3 0  9992
2 25910  52.0016  84.1789 0007365  68.2965 291.8671 12.29427501164645
